FENGYUN 1C DEB          
1 31152U 99025BHE 26061.51767436  .00000241  00000+0  89694-4 0  9997
2 31152  98.4236  51.2632 0129833 154.4858 333.6818 14.35916235991938
FENGYUN 1C DEB          
1 31155U 99025BHH 26061.63687183  .00002746  00000+0  15561-2 0  9995
2 31155  99.0322 135.7354 0091995 139.7626 221.0400 14.08749625967127
FENGYUN 1C DEB          
1 31157U 99025BHK 26059.17078497  .00000544  00000+0  24794-3 0  9998
2 31157  98.4871  44.8080 0101238 100.2324 261.0290 14.22675178980849
FENGYUN 1C DEB          
1 31158U 99025BHL 26057.00599600  .00004448  00000+0  15829-2 0  9998
2 31158  98.7719 141.7312 0050194 172.1138 188.0847 14.34106141655582
FENGYUN 1C DEB          
1 31159U 99025BHM 26060.72091757  .00108790  00000+0  15690-2 0  9993
2 31159  97.8055  31.1002 0090514  88.5015 272.6602 15.50898808  7529
FENGYUN 1C DEB          
1 31160U 99025BHN 26061.10328043  .00000279  00000+0  21816-3 0  9990
2 31160  99.0704 121.7068 0059428  37.1858 323.3400 13.99622502707094
FENGYUN 1C DEB          
1 31161U 99025BHP 26059.83891307  .00000588  00000+0  35352-3 0  9999
2 31161  98.7432  84.1633 0069626 128.2259 232.5207 14.09351376972020
FENGYUN 1C DEB          
1 31163U 99025BHR 26055.89960755  .00001067  00000+0  40572-3 0  9990
2 31163  98.9764 291.0890 0055586  37.1850 323.3162 14.32281950658038
FENGYUN 1C DEB          
1 31165U 99025BHT 26061.44156431  .00007758  00000+0  11884-2 0  9994
2 31165  98.8716 133.4662 0066831 347.3445  75.9599 14.72486459999276
FENGYUN 1C DEB          
1 31168U 99025BHW 26061.60003320  .00009584  00000+0  15319-2 0  9999
2 31168  98.8975 204.6974 0107172 175.9772 184.2317 14.68260485  2692
FENGYUN 1C DEB          
1 31169U 99025BHX 26060.05436286  .00004551  00000+0  18427-2 0  9991
2 31169  99.1509  95.0740 0059188 152.4129 208.0212 14.27319213582211
FENGYUN 1C DEB          
1 31171U 99025BHZ 26061.46421143  .00014881  00000+0  44318-2 0  9991
2 31171  98.0225  50.6053 0152486  75.5348  75.3744 14.36614939969749
FENGYUN 1C DEB          
1 31172U 99025BJA 26059.80292758  .00000536  00000+0  19297-3 0  9996
2 31172  98.4274  67.0001 0149834  37.7252 323.4325 14.31589661987436
FENGYUN 1C DEB          
1 31175U 99025BJD 26059.82393861  .00025892  00000+0  46885-2 0  9992
2 31175  98.3998  66.2845 0066369 283.7402  75.6418 14.64843200667802
FENGYUN 1C DEB          
1 31177U 99025BJF 26061.23044718  .00003833  00000+0  36302-2 0  9990
2 31177  98.7599 331.7836 0303243 104.4888  44.1050 13.62895656672940
FENGYUN 1C DEB          
1 31178U 99025BJG 26061.28520193  .00004370  00000+0  18117-2 0  9993
2 31178  99.5128  74.8230 0125694  91.1565 270.4014 14.22910917969462
