[{"OBJECT_NAME":"FENGYUN 1C DEB","OBJECT_ID":"1999-025BHE","EPOCH":"2026-03-02T12:25:27.064704","MEAN_MOTION":14.35916235,"ECCENTRICITY":0.01298333,"INCLINATION":98.4236,"RA_OF_ASC_NODE":51.2632,"ARG_OF_PERICENTER":154.4858,"MEAN_ANOMALY":333.6818,"EPHEMERIS_TYPE":0,"CLASSIFICATION_TYPE":"U","NORAD_CAT_ID":31152,"ELEMENT_SET_NO":999,"REV_AT_EPOCH":99193,"BSTAR":8.9694323e-5,"MEAN_MOTION_DOT":2.41e-6,"MEAN_MOTION_DDOT":0},{"OBJECT_NAME":"FENGYUN 1C DEB","OBJECT_ID":"1999-025BHH","EPOCH":"2026-03-02T15:17:05.726112","MEAN_MOTION":14.08749625,"ECCENTRICITY":0.0091995,"INCLINATION":99.0322,"RA_OF_ASC_NODE":135.7354,"ARG_OF_PERICENTER":139.7626,"MEAN_ANOMALY":221.04,"EPHEMERIS_TYPE":0,"CLASSIFICATION_TYPE":"U","NORAD_CAT_ID":31155,"ELEMENT_SET_NO":999,"REV_AT_EPOCH":96712,"BSTAR":0.0015561,"MEAN_MOTION_DOT":2.746e-5,"MEAN_MOTION_DDOT":0},{"OBJECT_NAME":"FENGYUN 1C DEB","OBJECT_ID":"1999-025BHK","EPOCH":"2026-02-28T04:05:55.821408","MEAN_MOTION":14.22675178,"ECCENTRICITY":0.01012384,"INCLINATION":98.4871,"RA_OF_ASC_NODE":44.808,"ARG_OF_PERICENTER":100.2324,"MEAN_ANOMALY":261.029,"EPHEMERIS_TYPE":0,"CLASSIFICATION_TYPE":"U","NORAD_CAT_ID":31157,"ELEMENT_SET_NO":999,"REV_AT_EPOCH":98084,"BSTAR":0.00024794401,"MEAN_MOTION_DOT":5.44e-6,"MEAN_MOTION_DDOT":0},{"OBJECT_NAME":"FENGYUN 1C DEB","OBJECT_ID":"1999-025BHL","EPOCH":"2026-02-26T00:08:38.054400","MEAN_MOTION":14.34106141,"ECCENTRICITY":0.00501949,"INCLINATION":98.7719,"RA_OF_ASC_NODE":141.7312,"ARG_OF_PERICENTER":172.1138,"MEAN_ANOMALY":188.0847,"EPHEMERIS_TYPE":0,"CLASSIFICATION_TYPE":"U","NORAD_CAT_ID":31158,"ELEMENT_SET_NO":999,"REV_AT_EPOCH":65558,"BSTAR":0.0015829148,"MEAN_MOTION_DOT":4.448e-5,"MEAN_MOTION_DDOT":0},{"OBJECT_NAME":"FENGYUN 1C DEB","OBJECT_ID":"1999-025BHM","EPOCH":"2026-03-01T17:18:07.278048","MEAN_MOTION":15.50898808,"ECCENTRICITY":0.00905147,"INCLINATION":97.8055,"RA_OF_ASC_NODE":31.1002,"ARG_OF_PERICENTER":88.5015,"MEAN_ANOMALY":272.6602,"EPHEMERIS_TYPE":0,"CLASSIFICATION_TYPE":"U","NORAD_CAT_ID":31159,"ELEMENT_SET_NO":999,"REV_AT_EPOCH":752,"BSTAR":0.001568969,"MEAN_MOTION_DOT":0.0010879,"MEAN_MOTION_DDOT":0},{"OBJECT_NAME":"FENGYUN 1C DEB","OBJECT_ID":"1999-025BHN","EPOCH":"2026-03-02T02:28:43.429152","MEAN_MOTION":13.99622502,"ECCENTRICITY":0.0059428,"INCLINATION":99.0704,"RA_OF_ASC_NODE":121.7068,"ARG_OF_PERICENTER":37.1858,"MEAN_ANOMALY":323.34,"EPHEMERIS_TYPE":0,"CLASSIFICATION_TYPE":"U","NORAD_CAT_ID":31160,"ELEMENT_SET_NO":999,"REV_AT_EPOCH":70709,"BSTAR":0.00021815559,"MEAN_MOTION_DOT":2.79e-6,"MEAN_MOTION_DDOT":0},{"OBJECT_NAME":"FENGYUN 1C DEB","OBJECT_ID":"1999-025BHP","EPOCH":"2026-02-28T20:08:02.089248","MEAN_MOTION":14.09351376,"ECCENTRICITY":0.00696264,"INCLINATION":98.7432,"RA_OF_ASC_NODE":84.1633,"ARG_OF_PERICENTER":128.2259,"MEAN_ANOMALY":232.5207,"EPHEMERIS_TYPE":0,"CLASSIFICATION_TYPE":"U","NORAD_CAT_ID":31161,"ELEMENT_SET_NO":999,"REV_AT_EPOCH":97202,"BSTAR":0.00035352001,"MEAN_MOTION_DOT":5.88e-6,"MEAN_MOTION_DDOT":0},{"OBJECT_NAME":"FENGYUN 1C DEB","OBJECT_ID":"1999-025BHR","EPOCH":"2026-02-24T21:35:26.092320","MEAN_MOTION":14.3228195,"ECCENTRICITY":0.0055586,"INCLINATION":98.9764,"RA_OF_ASC_NODE":291.089,"ARG_OF_PERICENTER":37.185,"MEAN_ANOMALY":323.3162,"EPHEMERIS_TYPE":0,"CLASSIFICATION_TYPE":"U","NORAD_CAT_ID":31163,"ELEMENT_SET_NO":999,"REV_AT_EPOCH":65803,"BSTAR":0.00040572,"MEAN_MOTION_DOT":1.067e-5,"MEAN_MOTION_DDOT":0},{"OBJECT_NAME":"FENGYUN 1C DEB","OBJECT_ID":"1999-025BHT","EPOCH":"2026-03-02T10:35:51.156384","MEAN_MOTION":14.72486459,"ECCENTRICITY":0.00668315,"INCLINATION":98.8716,"RA_OF_ASC_NODE":133.4662,"ARG_OF_PERICENTER":347.3445,"MEAN_ANOMALY":75.9599,"EPHEMERIS_TYPE":0,"CLASSIFICATION_TYPE":"U","NORAD_CAT_ID":31165,"ELEMENT_SET_NO":999,"REV_AT_EPOCH":99927,"BSTAR":0.0011883703,"MEAN_MOTION_DOT":7.758e-5,"MEAN_MOTION_DDOT":0},{"OBJECT_NAME":"FENGYUN 1C DEB","OBJECT_ID":"1999-025BHW","EPOCH":"2026-03-02T14:24:02.868480","MEAN_MOTION":14.68260485,"ECCENTRICITY":0.0107172,"INCLINATION":98.8975,"RA_OF_ASC_NODE":204.6974,"ARG_OF_PERICENTER":175.9772,"MEAN_ANOMALY":184.2317,"EPHEMERIS_TYPE":0,"CLASSIFICATION_TYPE":"U","NORAD_CAT_ID":31168,"ELEMENT_SET_NO":999,"REV_AT_EPOCH":269,"BSTAR":0.0015319,"MEAN_MOTION_DOT":9.584e-5,"MEAN_MOTION_DDOT":0},{"OBJECT_NAME":"FENGYUN 1C DEB","OBJECT_ID":"1999-025BHX","EPOCH":"2026-03-01T01:18:16.951104","MEAN_MOTION":14.27319213,"ECCENTRICITY":0.00591881,"INCLINATION":99.1509,"RA_OF_ASC_NODE":95.074,"ARG_OF_PERICENTER":152.4129,"MEAN_ANOMALY":208.0212,"EPHEMERIS_TYPE":0,"CLASSIFICATION_TYPE":"U","NORAD_CAT_ID":31169,"ELEMENT_SET_NO":999,"REV_AT_EPOCH":58221,"BSTAR":0.0018427378,"MEAN_MOTION_DOT":4.551e-5,"MEAN_MOTION_DDOT":0},{"OBJECT_NAME":"FENGYUN 1C DEB","OBJECT_ID":"1999-025BHZ","EPOCH":"2026-03-02T11:08:27.867552","MEAN_MOTION":14.36614939,"ECCENTRICITY":0.01524869,"INCLINATION":98.0225,"RA_OF_ASC_NODE":50.6053,"ARG_OF_PERICENTER":75.5348,"MEAN_ANOMALY":75.3744,"EPHEMERIS_TYPE":0,"CLASSIFICATION_TYPE":"U","NORAD_CAT_ID":31171,"ELEMENT_SET_NO":999,"REV_AT_EPOCH":96974,"BSTAR":0.0044318024,"MEAN_MOTION_DOT":0.00014881,"MEAN_MOTION_DDOT":0},{"OBJECT_NAME":"FENGYUN 1C DEB","OBJECT_ID":"1999-025BJA","EPOCH":"2026-02-28T19:16:12.942912","MEAN_MOTION":14.31589661,"ECCENTRICITY":0.01498347,"INCLINATION":98.4274,"RA_OF_ASC_NODE":67.0001,"ARG_OF_PERICENTER":37.7252,"MEAN_ANOMALY":323.4325,"EPHEMERIS_TYPE":0,"CLASSIFICATION_TYPE":"U","NORAD_CAT_ID":31172,"ELEMENT_SET_NO":999,"REV_AT_EPOCH":98743,"BSTAR":0.00019297409,"MEAN_MOTION_DOT":5.36e-6,"MEAN_MOTION_DDOT":0},{"OBJECT_NAME":"FENGYUN 1C DEB","OBJECT_ID":"1999-025BJD","EPOCH":"2026-02-28T19:46:28.295904","MEAN_MOTION":14.648432,"ECCENTRICITY":0.00663697,"INCLINATION":98.3998,"RA_OF_ASC_NODE":66.2845,"ARG_OF_PERICENTER":283.7402,"MEAN_ANOMALY":75.6418,"EPHEMERIS_TYPE":0,"CLASSIFICATION_TYPE":"U","NORAD_CAT_ID":31175,"ELEMENT_SET_NO":999,"REV_AT_EPOCH":66780,"BSTAR":0.0046885317,"MEAN_MOTION_DOT":0.00025892,"MEAN_MOTION_DDOT":0},{"OBJECT_NAME":"FENGYUN 1C DEB","OBJECT_ID":"1999-025BJF","EPOCH":"2026-03-02T05:31:50.636352","MEAN_MOTION":13.62895656,"ECCENTRICITY":0.0303243,"INCLINATION":98.7599,"RA_OF_ASC_NODE":331.7836,"ARG_OF_PERICENTER":104.4888,"MEAN_ANOMALY":44.105,"EPHEMERIS_TYPE":0,"CLASSIFICATION_TYPE":"U","NORAD_CAT_ID":31177,"ELEMENT_SET_NO":999,"REV_AT_EPOCH":67294,"BSTAR":0.0036302237,"MEAN_MOTION_DOT":3.833e-5,"MEAN_MOTION_DDOT":0},{"OBJECT_NAME":"FENGYUN 1C DEB","OBJECT_ID":"1999-025BJG","EPOCH":"2026-03-02T06:50:41.446752","MEAN_MOTION":14.22910917,"ECCENTRICITY":0.01256943,"INCLINATION":99.5128,"RA_OF_ASC_NODE":74.823,"ARG_OF_PERICENTER":91.1565,"MEAN_ANOMALY":270.4014,"EPHEMERIS_TYPE":0,"CLASSIFICATION_TYPE":"U","NORAD_CAT_ID":31178,"ELEMENT_SET_NO":999,"REV_AT_EPOCH":96946,"BSTAR":0.0018116739,"MEAN_MOTION_DOT":4.37e-5,"MEAN_MOTION_DDOT":0}]
